address,photo,latitude,longitude,name
"Jl. Ipda Tut Harsono No.24 Muja Muju, Umbulharjo, Timoho, Yogyakarta 55165 Indonesia",https://media-cdn.tripadvisor.com/media/photo-o/22/82/69/e8/hom-premiere-timoho.jpg,-7.798.264,110.392.555,@HOM Premiere Timoho Jogjakarta
"Jl. Pasar Kembang No.49, Sosromenduran, Gedong Tengen, in front of Tugu Railway Station, 55271 Indonesia",https://media-cdn.tripadvisor.com/media/photo-o/12/b3/c9/52/suite-room.jpg,-7.790.257,11.036.331,Abadi Hotel Malioboro Yogyakarta
"Jalan Kabupaten Km. 4 Jl. Taman Alamanda D7 Trihanggo, Gamping, Ngawean, Trihanggo, Gamping, Sleman 55291 Indonesia",https://media-cdn.tripadvisor.com/media/photo-o/23/df/4f/a1/alamanda-villas-pool.jpg,-7.747.883,110.350.555,"Alamanda Villas, Pool & Adventure"
"Jl. Affandi No.17C, Yogyakarta 55222 Indonesia",https://media-cdn.tripadvisor.com/media/photo-o/23/17/4a/28/caption.jpg,-7.780.216,11.038.797,All Nite & Day Yogyakarta - Gejayan
"Jln. Pondok Wachid Hasim No. 41 Gaten, Sleman, 55283 Indonesia",https://media-cdn.tripadvisor.com/media/photo-o/09/90/5b/65/deluxe-room.jpg,-7.773.264,1.104.015,Allstay Hotel Yogyakarta
"Dawangsari 02/03 No.45, Sambirejo, Prambanan, Yogyakarta 55572 Indonesia",https://media-cdn.tripadvisor.com/media/photo-o/23/52/a6/09/amaranta-prambanan-hotel.jpg,-7.769.853,1.105.045,Amaranta Prambanan
"Jl. Prof. Dr Herman Yohanes no. 16, 52281 Indonesia",https://media-cdn.tripadvisor.com/media/photo-o/1c/d2/1b/e1/amaris-hotel-sagan-jogja.jpg,-7.780.237,11.037.922,Amaris Hotel Sagan Jogja
"Jl. Pasar Kembang No. 53 Sosromenduran, Gedong Tengen, Yogyakarta 55271 Indonesia",https://media-cdn.tripadvisor.com/media/photo-o/17/f4/0f/69/arte-hotel-malioboro.jpg,-7.789.978,11.036.232,Arte Hotel Malioboro Yogyakarta
"Jalan Urip Sumoharjo 37 Kota Yogyakarta, Yogyakarta 55222 Indonesia",https://media-cdn.tripadvisor.com/media/photo-o/21/f2/95/55/javanese-suites.jpg,-7.782.832,11.038.184,Artotel Suites Bianti Yogyakarta
"Jl. Kaliurang KM 5.6 no. 14, 55281 Indonesia",https://media-cdn.tripadvisor.com/media/photo-o/1a/08/7e/62/artotel-yogyakarta.jpg,-7.756.689,1.103.822,Artotel Yogyakarta
"Jln. Laksda B Adi Sucipto 157, 55281 Indonesia",https://media-cdn.tripadvisor.com/media/photo-o/10/5d/08/37/atrium-premiere-hotel.jpg,-7.782.972,11.039.293,Atrium Premiere Hotel Yogyakarta
"Jl. Ganesha II No. 53 Timoho, 55165 Indonesia",https://media-cdn.tripadvisor.com/media/photo-o/07/45/b7/53/the-grove-express-timoho.jpg,-7.792.976,11.039.464,Aveon Express Hotel Yogyakarta by Daphna International
"Jl. Padjajaran No.160 Ring Road Utara, Pugeran Maguwoharjo, Depok 55282 Indonesia",https://media-cdn.tripadvisor.com/media/photo-m/1280/1a/ae/34/82/facade.jpg,-7.764.008,11.042.263,Aveon Hotel Yogyakarta by Daphna International
"Jalan Malioboro No. 42, Yogyakarta 55213 Indonesia",https://media-cdn.tripadvisor.com/media/photo-o/1c/c7/c8/d6/sky-pool.jpg,-7.793.897,1.103.658,Aveta Hotel Malioboro
"Jl. KH Ahmad Dahlan No 123, 55262 Indonesia",https://media-cdn.tripadvisor.com/media/photo-o/0f/c1/a1/e8/the-newest-4-start-hotel.jpg,-7.801.556,11.035.693,Ayaartta Hotel Malioboro
"Jl. Brigjend. Katamso Keparakan, Mergangsan, Yogyakarta 55152 Indonesia",https://media-cdn.tripadvisor.com/media/photo-o/10/dd/7c/01/deluxe-queen-room.jpg,-7.808.652,11.037.028,Ayola Tasneem Convention Hotel
"13 Jalan Kopen Utama, Sleman 55581 Indonesia",https://media-cdn.tripadvisor.com/media/partner/bookingcom/photo-o/26/81/f7/6a/caption.jpg,-7.740.312,11.038.997,Banua Raya Homestay
"Jl Mercusuar Tanjung Baron Rejosari, Kemadang, Tanjungsari 55881 Indonesia",https://media-cdn.tripadvisor.com/media/partner/bookingcom/photo-o/26/99/da/38/caption.jpg,-8.131.454,11.054.901,Baron Hill Resort Gunung Kidul RedPartner
"Pelem Sewu RT 06 Panggungharjo Sewon, Bantul Indonesia",https://media-cdn.tripadvisor.com/media/photo-o/18/0c/0e/b9/bedhot-homestay.jpg,-7.839.432,11.035.799,Bedhot Homestay
"Jl. Raya Yogya - Solo Km 14, Kalasan 55571 Indonesia",https://media-cdn.tripadvisor.com/media/photo-o/04/12/44/61/colombo-hotel-yogyakarta.jpg,-7.768.143,110.469.894,Bueno Colombo Hotel and Resorts
"Jl. Jogokaryan no. 61- 63, 55143 Indonesia",https://media-cdn.tripadvisor.com/media/photo-o/0a/96/54/91/swimming-pool.jpg,-7.824.013,1.103.666,Burza Hotel Yogyakarta
"Jl. Bayangkara no. 11 Ngampilan, 55261 Indonesia",https://media-cdn.tripadvisor.com/media/partner/bookingcom/photo-o/26/b3/fa/be/caption.jpg,-780.003,11.036.196,Cabin Hotel Bhayangkara
"Jl. Kaliurang Km 5,5 no. 44, Depok 55281 Indonesia",https://media-cdn.tripadvisor.com/media/photo-o/08/8a/07/b2/cakra-kembang-hotel.jpg,-7.758.546,11.038.218,Cakra Kembang Hotel
"Jl. Kaliurang Km.5,2 No. 25, Yogyakarta, 55281 Indonesia",https://media-cdn.tripadvisor.com/media/photo-o/18/a7/79/d3/alamanda-swimming-pool.jpg,-776.006,11.038.089,Cakra Kusuma Hotel
"Jl. Raya Merapi Golf, Turi 55583 Indonesia",https://media-cdn.tripadvisor.com/media/photo-o/08/e3/ea/96/cangkringan-jogja-villas.jpg,-7.626.136,110.445.076,Cangkringan Jogja Villas & Spa
"Jl. Letjend Soeprapto No.1 Ngampilan, 55261 Indonesia",https://media-cdn.tripadvisor.com/media/photo-o/0b/0e/7b/3e/cavinton-hotel-exterior.jpg,-7.800.629,11.035.611,Cavinton Hotel
"Jl. Babarsari no. 23b Sleman, Sleman 55281 Indonesia",https://media-cdn.tripadvisor.com/media/photo-o/12/15/c0/99/ceria-boutique-hotel.jpg,-7.775.058,11.041.605,Ceria Boutique Hotel
"Jl. Bayangkara no. 35 Ngampilan, 55261 Indonesia",https://media-cdn.tripadvisor.com/media/photo-o/22/ff/22/0e/cordela-kartika-dewi.jpg,-779.836,11.036.189,Cordela Kartika Dewi Malioboro Yogyakarta
"Jl. Wates - Purwo Mezzanine Level Domestic Arrival Terminal, Yogyakarta International Airport, Kulon Progo 55654 Indonesia",https://media-cdn.tripadvisor.com/media/photo-o/1c/63/a6/50/deluxe-double-room.jpg,-7.897.905,11.005.975,Cordia Hotel Yogyakarta
"Jalan Magelang KM 5.2, Sleman 55284 Indonesia",https://media-cdn.tripadvisor.com/media/photo-o/1d/71/0d/bd/crystal-lotus-yogyakarta.jpg,-7.759.364,11.036.228,Crystal Lotus Yogyakarta
"Jl. Boyong Kaliurang Barat, Bojong, Hargobinangun, Kec. Pakem, Kabupaten Sleman, Yogyakarta 55582 Indonesia",https://media-cdn.tripadvisor.com/media/photo-m/1280/1c/22/e4/06/d-kaliurang-resort-convention.jpg,-7.607.222,11.041.918,D'Kaliurang Resort & Convention
"Jl. Cendrawasih no. 19, Demangan 55281 Indonesia",https://media-cdn.tripadvisor.com/media/photo-o/14/20/ed/7c/twin-bed-d-kayon.jpg,-7.780.164,110.390.785,D'kayon Hotel
"Jl. Parangtritis Km 8.5, Tembi, Sewon 55186 Indonesia",https://media-cdn.tripadvisor.com/media/photo-o/12/49/7e/71/d-omah-hotel-yogyakarta.jpg,-7.871.516,11.035.331,d’Omah Hotel and Village Resort
"Jl.Laksda Adisucipto Km 8 Maguwoharjo, Sleman, Yogyakarta, 55282 Indonesia",https://media-cdn.tripadvisor.com/media/photo-o/0a/bc/88/a0/getlstd-property-photo.jpg,-7.783.526,11.042.571,D'Salvatore Art & Boutique Hotel
"Jl. Panembahan Senopati no. 40, 55121 Indonesia",https://media-cdn.tripadvisor.com/media/photo-o/15/4d/e1/02/d-senopati-malioboro.jpg,-7.801.654,11.037.009,D'Senopati Malioboro Grand Hotel
"82 Jalan Kaliwaru, Depok 55281 Indonesia",https://media-cdn.tripadvisor.com/media/partner/bookingcom/photo-o/26/bc/a7/dc/caption.jpg,-7.762.171,11.039.754,Diva Residence
"Jl. Parangtritis Timuran MG.III/103, Yogyakarta 55153 Indonesia",https://media-cdn.tripadvisor.com/media/photo-o/14/0b/01/8f/lobby.jpg,-7.816.747,11.036.953,Duta Garden Hotel
"Jl. Prawiritaman no. 26, 55153 Indonesia",https://media-cdn.tripadvisor.com/media/photo-o/0f/30/fc/19/duta-guest-house.jpg,-781.951,11.037.101,Duta Guest House
"Jl. Laksda Adisucipto Km. 6,5 Seturan, Depok 55281 Indonesia",https://media-cdn.tripadvisor.com/media/photo-o/26/57/a8/ab/eastparc-hotel-yogyakarta.jpg,-7.781.834,11.040.849,Eastparc Hotel Yogyakarta
"Jalan Dagen No 06, Yogyakarta 55271 Indonesia",https://media-cdn.tripadvisor.com/media/photo-o/16/e3/fa/6d/el-hotel-royale-yogyakarta.jpg,-7.793.795,110.364.914,Él Hotel Royale Yogyakarta Malioboro
"Jln. Kusumanegara No. 91, 55165 Indonesia",https://media-cdn.tripadvisor.com/media/photo-o/23/29/27/f3/exterior.jpg,-7.801.358,11.038.829,favehotel Kusumanegara
"Jl. I Dewa Nyoman Oka no. 30, Yogyakarta 55224 Indonesia",https://media-cdn.tripadvisor.com/media/photo-o/23/cf/0a/ae/lobby.jpg,-7.785.724,11.036.983,favehotel Malioboro Yogyakarta
"Jl. HOS Cokroaminoto No. 60, Yogyakarta 55253 Indonesia",https://media-cdn.tripadvisor.com/media/photo-o/0f/c0/20/f4/forriz-hotel-yogyakarta.jpg,-7.795.434,11.035.351,Forriz Hotel Yogyakarta
"Jl. Jagalan, Beji No. 51-61 Purwokinanti, Pakualaman, Yogyakarta 55166 Indonesia",https://media-cdn.tripadvisor.com/media/photo-o/15/7b/11/63/front-one-cabin-malioboro.jpg,-779.755,11.037.058,Front One Cabin Malioboro Jogja
"Jalan Ring Road Utara No.168, Depok 55283 Indonesia",https://media-cdn.tripadvisor.com/media/photo-o/1b/ce/c2/ec/deluxe-room.jpg,-7.762.336,110.416.016,Front One Resort Yogyakarta
"Jl. Ipda Tut Harsono no. 16 Umbulharjo, 55165 Indonesia",https://media-cdn.tripadvisor.com/media/photo-o/11/0e/24/ce/gaia-cosmo-hotel.jpg,-7.798.904,11.039.246,GAIA Cosmo Hotel
"Jl. Prawirotaman 2 No. 839B, 55153 Indonesia",https://media-cdn.tripadvisor.com/media/photo-o/05/dd/0a/79/galery-prawirotaman-hotel.jpg,-7.820.366,11.037.139,Gallery Prawirotaman Hotel
Jl. Sosrowijayan no. 242 Malioboro Indonesia,https://media-cdn.tripadvisor.com/media/photo-o/06/1c/18/95/grage-jogja-hotel.jpg,-7.790.967,11.036.231,Grage Jogja Hotel
"Jl. Sosrowijayan no. 33 Malioboro, 55271 Indonesia",https://media-cdn.tripadvisor.com/media/photo-o/16/16/da/ae/grage-ramayana-hotel.jpg,-7.791.862,110.363.884,Grage Ramayana Hotel
"Jl. Laksda Adisucipto No.82, Caturtunggal, Depok, In front of Plaza Ambarrukmo, 55281 Indonesia",https://media-cdn.tripadvisor.com/media/photo-o/21/5b/d6/a3/grand-ambarrukmo-hotel.jpg,-7.783.364,11.040.052,Grand Ambarrukmo Hotel
"Jl. Laksda Adisucipto No.82, Caturtunggal, Kec., Yogyakarta 55281 Indonesia",https://media-cdn.tripadvisor.com/media/photo-m/1280/21/7d/3b/52/caption.jpg,-7.783.576,11.040.055,Grand Ambarukmo
"Jl. Malioboro no. 60, 55213 Indonesia",https://media-cdn.tripadvisor.com/media/photo-o/18/bd/e3/8d/exterior.jpg,-7.790.251,11.036.624,Grand Inna Malioboro
"Jl. Urip Sumoharjo no. 137, 55222 Indonesia",https://media-cdn.tripadvisor.com/media/photo-o/1b/5b/ce/15/suite-room-horison-urip.jpg,-7.782.904,11.038.694,Grand Kangen Hotel Urip Sumoharjo
"Jl. Affandi no 9 Gejayan, Sleman 55281 Indonesia",https://media-cdn.tripadvisor.com/media/photo-o/10/3d/a1/48/swimming-pool.jpg,-7.759.267,1.103.955,Grand Keisha Yogyakarta
"Jl. Dagen Malioboro no. 85 Gedongtengen, 55271 Indonesia",https://media-cdn.tripadvisor.com/media/photo-o/1c/95/39/81/executive-room.jpg,-7.793.856,11.036.219,Grand Malioboro Yogyakarta
"Jl. Laksda B Adi Sucipto no. 80, Sleman 55281 Indonesia",https://media-cdn.tripadvisor.com/media/photo-o/23/c7/10/1a/exterior.jpg,-7.783.364,110.392.204,Grand Mercure Yogyakarta Adi Sucipto
"Jl. Tantular No.420 Pringwulung, Condongcatur 55281 Indonesia",https://media-cdn.tripadvisor.com/media/photo-m/1280/22/c2/9e/ea/oyo-825-grand-omah-sastro.jpg,-7.771.002,110.395,Grand Omah Sastro
"Jl. Laksda Adisucipto No. 48, Nayan 55281 Indonesia",https://media-cdn.tripadvisor.com/media/photo-o/0b/e6/5d/f4/hotel-night-view.jpg,-7.782.754,11.042.333,Grand Quality (GQ) Yogyakarta
"Jalan Janti, Gedongkuning No.336 Depan Jogja Expo Center, Bantul 55198 Indonesia",https://media-cdn.tripadvisor.com/media/photo-o/1c/7a/a3/59/grand-dafam-rohan-jogja.jpg,-7.798.358,110.404.755,Grand Rohan Jogja
"Jl. Diponegoro No. 27, Yogyakarta 55233 Indonesia",https://media-cdn.tripadvisor.com/media/photo-o/24/e5/d6/29/grand-senyum-hotel.jpg,-7.782.988,11.036.539,Grand Senyum Hotel
"Jl. Magelang KM 4 no. 145, Sleman 55284 Indonesia",https://media-cdn.tripadvisor.com/media/photo-o/0e/d4/f5/e5/entrance.jpg,-7.768.841,11.036.124,Grand Serela Hotel Yogyakarta
"Jl. Gejayan 37, Sleman 55287 Indonesia",https://media-cdn.tripadvisor.com/media/photo-o/09/44/bf/cc/grand-tjokro-yogyakarta.jpg,-7.766.919,11.039.153,Grand Tjokro Yogyakarta
"Jl. P. Mangkubumi No.18 Jl. Margo Utomo No.18, Yogyakarta 55232 Indonesia",https://media-cdn.tripadvisor.com/media/photo-o/26/2a/78/af/building.jpg,-7.787.693,11.036.669,Grand Zuri Malioboro Yogyakarta
"Jl. Prawiritaman II no. 629 Brontokusuman, 55153 Indonesia",https://media-cdn.tripadvisor.com/media/photo-o/0e/71/8b/e6/greenhost-boutique-hotel.jpg,-7.820.128,11.036.911,Greenhost Boutique Hotel
"Jl. Kecubung Pandansari, Wonosari 55851 Indonesia",https://media-cdn.tripadvisor.com/media/photo-o/0f/7b/77/1b/kamar-keluarga.jpg,-7.964.918,11.060.892,Griya Limasan Gunung Kidul
"Jl. Boyong 99 Kaliurang Barat, Kaliurang Indonesia",https://media-cdn.tripadvisor.com/media/photo-o/26/07/9e/67/griya-persada-convention.jpg,-7.607.022,110.421.715,Griya Persada Convention Hotel & Resort Kaliurang Sleman Yogyakarta
"Jl. Munggur No.162C, Condongcatur 55281 Indonesia",https://media-cdn.tripadvisor.com/media/partner/bookingcom/photo-o/26/9d/f8/29/caption.jpg,-7.755.243,110.400.734,Guest House B Fren Syariah Yogya RedPartner
"Jl. Prof. Yohanes Sagan, 55223 Indonesia",https://media-cdn.tripadvisor.com/media/photo-o/15/37/7c/36/amboja-krama-restaurant.jpg,-77.818,110.379.166,H Boutique Hotel Jogja
"Jl. Mangkubumi no. 52, Gowongan 55232 Indonesia",https://media-cdn.tripadvisor.com/media/photo-o/07/9f/22/90/harper-mangkubumi.jpg,-7.784.842,110.367.226,Harper Malioboro
Gowongan kidul no 57 Indonesia,https://media-cdn.tripadvisor.com/media/photo-o/0d/6f/0b/ac/giant-pupet-at-lobby.jpg,-7.787.695,1.103.637,HOM Platinum
"Jl. Karangmojo, Rt 001/ Rw 01, Karan, Kalasan 55571 Indonesia",https://media-cdn.tripadvisor.com/media/partner/bookingcom/photo-o/26/c8/fd/b0/caption.jpg,-7.751.242,11.048.477,Homestay Damandiri Prambanan
"Jl. Gowongan Kidul no. 33-49, 55271 Indonesia",https://media-cdn.tripadvisor.com/media/photo-o/1c/6c/8c/02/horison-ultima-riss-yogyakarta.jpg,-7.787.736,11.036.434,Horison Ultima Riss Yogyakarta
"Gt I/ 57 Jln. Sosrowijayan, 55271 Indonesia",https://media-cdn.tripadvisor.com/media/photo-o/0a/06/29/fd/room.jpg,-7.790.534,11.036.421,Hotel 1001 Malam
"Jl. HOS Cokroaminoto, 108 Indonesia",https://media-cdn.tripadvisor.com/media/photo-o/02/e4/cc/9e/bagian-hotel-dilihat.jpg,-7.791.337,11.035.392,Hotel Agung Mas
"Jalan Margo Utomo / P Mangkubumi No. 44, 55122 Indonesia",https://media-cdn.tripadvisor.com/media/photo-o/0c/be/6c/73/hotel-arjuna-recommended.jpg,-7.784.851,11.036.701,Hotel Arjuna
"Jl. AM. Sangaji no. 28, 55233 Indonesia",https://media-cdn.tripadvisor.com/media/photo-o/11/42/a6/b2/the-entrance-of-the-hotel.jpg,-7.780.103,110.367.645,Hotel Citradream Yogyakarta
"Jl. Dagen no. 60, 55271 Indonesia",https://media-cdn.tripadvisor.com/media/photo-o/08/b6/1d/65/hotel-dafam-fortuna-malioboro.jpg,-7.793.525,11.036.294,Hotel Dafam Fortuna Malioboro
"Jl. Seturan Raya, Depok, Sleman 55281 Indonesia",https://media-cdn.tripadvisor.com/media/photo-o/09/c1/c7/50/hotel-dafam-fortuna-seturan.jpg,-7.765.658,11.041.082,Hotel Dafam Fortuna Seturan
"Jl. Tirtodipuran No. 9, 55143 Indonesia",https://media-cdn.tripadvisor.com/media/photo-o/17/05/3c/31/hotel-rengganis.jpg,-7.817.791,110.363.556,Hotel Diana Jogja
"Jln. Ungaran no. 1 Yogyakarta, 55224 Indonesia",https://media-cdn.tripadvisor.com/media/photo-o/1c/69/52/c9/hotel-graha-kinasih-kotabaru.jpg,-7.787.068,110.370.636,Hotel Graha Kinasih Kotabaru
"Sosromenduran, Gedong Tengen Jalan Gowongan Kidul No 57, Yogyakarta 55271 Indonesia",https://media-cdn.tripadvisor.com/media/photo-o/23/32/1e/be/tampak-depan-dari-horaios.jpg,-7.787.497,11.036.362,Hotel Horaios Malioboro Yogyakarta
"Jl. Wijaya Kusuma, Dero no. 29 Condong Catur, Sleman 55564 Indonesia",https://media-cdn.tripadvisor.com/media/photo-o/01/bf/b3/eb/lobby.jpg,-7.754.056,11.040.897,Hotel Kusuma
"Jl. Malioboro no. 18, 55213 Indonesia",https://media-cdn.tripadvisor.com/media/photo-o/0d/43/67/89/20161011-171517-largejpg.jpg,-7.794.869,110.365.616,Hotel Mutiara Malioboro
"Jalan Pasar Kembang No. 21, Yogyakarta 55271 Indonesia",https://media-cdn.tripadvisor.com/media/photo-o/22/63/48/ac/meeting-room.jpg,-7.790.074,11.036.456,Hotel Neo Malioboro
"Jl. Laksda Adisucipto no. 38, 55221 Indonesia",https://media-cdn.tripadvisor.com/media/photo-o/0d/fe/2f/74/hotel-new-saphir-yogyakarta.jpg,-7.783.539,110.391.235,Hotel New Saphir Yogyakarta
"Km. 15 Jl. Kaliurang, Sleman 55584 Indonesia",https://media-cdn.tripadvisor.com/media/photo-o/16/20/dc/89/hotel-popi.jpg,-776.452,11.037.925,Hotel Popi
"Jln. Jenderal Sudirman 19, 55233 Indonesia",https://media-cdn.tripadvisor.com/media/photo-o/1b/7a/ca/5d/hotel-santika-premiere.jpg,-778.257,11.036.972,Hotel Santika Premiere Jogja
"Jl. P. Mangkubumi 72A, Yogyakarta 55233 Indonesia",https://media-cdn.tripadvisor.com/media/photo-o/18/f4/58/63/pool-bar.jpg,-7.773.843,11.036.865,Hotel Tentrem Yogyakarta
"Jl. Palagan Tentara Pelajar, Ngaglik 55581 Indonesia",https://media-cdn.tripadvisor.com/media/photo-o/24/ff/7e/78/exterior.jpg,-774.046,110.373.566,Hyatt Regency Yogyakarta
"jl. Ngày số 109, Yogyakarta 55271 Indonesia",https://media-cdn.tripadvisor.com/media/photo-o/24/ff/9e/53/exterior-view.jpg,-7.793.691,110.361.465,Ibis Styles Yogyakarta
"Jl. Laksda Adi Sucipto no. 80, Sleman 55221 Indonesia",https://media-cdn.tripadvisor.com/media/photo-o/1c/d9/90/3d/exterior-view.jpg,-7.783.872,11.039.201,Ibis Yogyakarta Adi Sucipto
"Jalan Malioboro No 52-58, Yogyakarta 55001 Indonesia",https://media-cdn.tripadvisor.com/media/photo-o/24/ff/4a/8e/guest-room.jpg,-7.793.226,11.036.632,Ibis Yogyakarta Malioboro Hotel
"Jl. Prawirotaman MG III No. 3, 55153 Indonesia",https://media-cdn.tripadvisor.com/media/photo-o/0a/25/bb/03/deluxe-room-view.jpg,-7.820.624,11.036.952,Indies Heritage Hotel
"Jl. Palagan Tentara Pelajar no. 106, Ngaglik 55581 Indonesia",https://media-cdn.tripadvisor.com/media/photo-o/10/0c/a1/eb/indoluxe-hotel-jogjakarta.jpg,-7.750.331,11.037.264,Indoluxe Hotel Jogjakarta
"Jalan Amarta No. 1 Seturan, Depok 55281 Indonesia",https://media-cdn.tripadvisor.com/media/photo-o/14/e7/76/90/superior-room-pool-access.jpg,-7.767.307,11.041.211,Indoluxe Rent Apartment
"Jl. Ring Road Utara Meguwo Maguwoharjo, Depok 55282 Indonesia",https://media-cdn.tripadvisor.com/media/photo-o/0e/fe/e0/21/innside-yogyakarta.jpg,-7.767.198,11.043.163,INNSIDE By Meliá Yogyakarta
"Jl. Gajah Mada no. 67, 55112 Indonesia",https://media-cdn.tripadvisor.com/media/photo-o/0f/bc/be/d1/xixy-house-sky-lounge.jpg,-7.797.726,11.037.263,Jambuluwuk Malioboro Yogyakarta Hotel
"Jl. Pakem, Turi km 5, Turi 55281 Indonesia",https://media-cdn.tripadvisor.com/media/photo-o/07/33/7b/eb/pelaminan.jpg,-7.646.822,1.103.833,Java Amazon Villa & Resort
"Pandowoharjo Sleman Sub District, 55512 Indonesia",https://media-cdn.tripadvisor.com/media/photo-o/10/5c/b8/cc/kolam-renang.jpg,-7.711.021,110.370.415,Java Village Resort
"Jl. Menukan 5 Karangkajen, 55153 Indonesia",https://media-cdn.tripadvisor.com/media/photo-o/0e/6c/47/af/junior-suite-room.jpg,-7.824.353,1.103.687,Jogja Village
"Jl. Gedongkuning Selatan, no. 118 Kotagede, 55172 Indonesia",https://media-cdn.tripadvisor.com/media/photo-o/0a/21/ae/c0/outdoor-swimming-pool.jpg,-7.813.511,11.040.175,Kalya Hotel
"Km. 22.38 Jl. Kaliurang Dusun Banteng, Hargobinangun, Pakem Indonesia",https://media-cdn.tripadvisor.com/media/photo-w/0a/04/1f/d7/kalyana-resort.jpg,-7.599.405,11.042.672,Kalyana Resort
"Jl. Kaliurang Km 10,8 Sinduharjo, Ngaglik 55581 Indonesia",https://media-cdn.tripadvisor.com/media/photo-o/17/b6/2e/9a/kampoeng-joglo-boutique.jpg,-7.715.871,11.040.565,Kampoeng Joglo Boutique Hotel
"Jl. Gadean No. 3 Ngupasan, Gondomanan, Yogyakarta 55122 Indonesia",https://media-cdn.tripadvisor.com/media/photo-o/23/20/d3/30/aerial-view-khas-malioboro.jpg,-7.798.167,110.363.335,KHAS Malioboro Hotel
"Jl. Diponegoro no. 99 100 meters to Tugu Yogyakarta, 55231 Indonesia",https://media-cdn.tripadvisor.com/media/photo-o/21/67/7a/2c/pesonna-hotel-tugu-yogyakarta.jpg,-778.323,11.036.311,KHAS Tugu Hotel
"Jl. Prawiritaman no. 596A Brontokusuman, Mergangsan, 55153 Indonesia",https://media-cdn.tripadvisor.com/media/photo-o/0f/ba/9e/41/standar-ac.jpg,-7.820.544,11.036.828,Ki Agung Prestise Hotel
"Jl. Jenderal Sudirman no. 89, 55223 Indonesia",https://media-cdn.tripadvisor.com/media/photo-o/24/f7/fc/41/kimaya-sudirman-yogyakarta.jpg,-7.782.685,110.377.846,Kimaya Sudirman Yogyakarta by Harris
"Jl. Parangtritis No.120, 55143 Indonesia",https://media-cdn.tripadvisor.com/media/photo-o/19/49/64/5e/deluxe-room.jpg,-7.822.418,11.036.728,KJ Hotel Yogyakarta
"Jln. Dagen 71-A, 55271 Indonesia",https://media-cdn.tripadvisor.com/media/photo-o/01/b3/16/fb/deluxe-room.jpg,-779.353,11.036.207,Kristina Hotel
"Jl. Ring Road Utara no. 409 Catur Tunggal, Depok 55281 Indonesia",https://media-cdn.tripadvisor.com/media/photo-o/12/f8/ec/ba/lafayette-boutique-hotel.jpg,-7.759.432,11.038.733,Lafayette Boutique Hotel
"Jln. Magelang 31, 55242 Indonesia",https://media-cdn.tripadvisor.com/media/photo-o/06/6b/fc/12/laxston-hotel-by-front.jpg,-7.780.018,11.036.064,Laxston Hotel
"Jl. Jogokariyan No. 82, 55143 Indonesia",https://media-cdn.tripadvisor.com/media/photo-o/09/f0/9e/4d/pool-at-night.jpg,-7.824.502,11.036.698,Lynn Hotel by Horison
"Jl Tamansiswa No 56, Yogyakarta 55151 Indonesia",https://media-cdn.tripadvisor.com/media/partner/bookingcom/photo-o/1c/5e/97/56/propertybuilding.jpg,-7.807.235,11.037.736,Madina Inn
"Jl. Pasar Kembang No 9 Malioboro, 55271 Indonesia",https://media-cdn.tripadvisor.com/media/photo-o/12/2d/79/74/superior-king.jpg,-7.790.097,11.036.539,Malioboro Prime Hotel
"11A Jalan Babarsari I, Caturtunggal 55281 Indonesia",https://media-cdn.tripadvisor.com/media/photo-o/1d/23/13/a9/maple-tree-homestay.jpg,-7.781.564,11.041.414,Maple Tree Homestay
"Jl. Suryotomo 31, 55122 Indonesia",https://media-cdn.tripadvisor.com/media/photo-o/23/40/1a/9f/melia-purosani-yogyakarta.jpg,-7.797.035,11.036.902,Melia Purosani
"Jl. Seturan Raya, Depok 80361 Indonesia",https://media-cdn.tripadvisor.com/media/photo-o/10/a9/bc/66/merapi-merbabu-hotel.jpg,-7.771.729,11.041.002,Merapi Merbabu Hotel Yogyakarta
"Jl. Laksda Adisucipto No.Km.8 Kompleks Malioboro City, Kabupaten Sleman, Caturtunggal 55281 Indonesia",https://media-cdn.tripadvisor.com/media/photo-o/24/7b/54/bc/next-hotel-yogyakarta.jpg,-7.781.515,1.103.994,Next Hotel Yogyakarta
"Jl. Malioboro No.52-58 Suryatmajan, Danurejan, Yogyakarta 55001 Indonesia",https://media-cdn.tripadvisor.com/media/photo-o/24/ff/58/2c/exterior-view.jpg,-7.792.902,11.036.699,Novotel Suites Yogyakarta Malioboro
"Jln. Matara No. 9, 55213 Indonesia",https://media-cdn.tripadvisor.com/media/photo-o/12/8e/27/71/nueve-malioboro-hotel.jpg,-7.795.935,110.368.614,Nueve Malioboro Hotel Yogyakarta
"Jl. Solo Km 15, Bendan, Tirtomartani, Kalasan 55571 Indonesia",https://media-cdn.tripadvisor.com/media/partner/bookingcom/photo-o/22/bd/6c/aa/caption.jpg,-7.760.808,110.476.814,Ohmmstay
"Jl. Pantai Sundak, 55881 Indonesia",https://media-cdn.tripadvisor.com/media/photo-o/0f/38/93/5f/getlstd-property-photo.jpg,-814.654,11.060.695,Omah Sundak Homestay
"Km 14 Jl. Palagan Ngepas Donoharjo, Ngaglik 55581 Indonesia",https://media-cdn.tripadvisor.com/media/photo-o/08/ad/68/14/upper-room.jpg,-7.674.429,11.037.749,Omkara Resort
"Jalan Nogopuro 35 Yogyakarta, Depok 55281 Indonesia",https://media-cdn.tripadvisor.com/media/photo-o/1a/29/1e/18/paku-mas-hotel.jpg,-7.783.692,11.040.351,Paku Mas Hotel
"Jalan Bendosari, Mudal, Sariharjo, Kec. Ngaglik, Yogyakarta 55581 Indonesia",https://media-cdn.tripadvisor.com/media/photo-o/26/9e/45/58/img-20220929-wa0159-largejpg.jpg,-7.676.647,11.040.477,Palagan Huis
"Jln. Prawirotaman 38, 55153 Indonesia",https://media-cdn.tripadvisor.com/media/photo-o/08/1c/53/3e/pandanaran-jogja.jpg,-781.945,11.037.238,Pandanaran Prawirotaman Yogyakarta
"Jl. Sosrowijayan No 35, Yogyakarta 55271 Indonesia",https://media-cdn.tripadvisor.com/media/photo-o/1d/85/89/a3/entrance.jpg,-7.791.959,11.036.389,Patra Malioboro Hotel
"Jl. Nasaret, Condongcatur 55281 Indonesia",https://media-cdn.tripadvisor.com/media/partner/bookingcom/photo-o/26/bf/82/d2/caption.jpg,-7.744.784,11.039.194,Paviliun Bu Sinta RedPartner
"Jl. Dagen no. 27, 55271 Indonesia",https://media-cdn.tripadvisor.com/media/photo-o/0c/52/dc/89/photo0jpg.jpg,-7.794.339,110.364.174,Peti Mas Hotel
"Jl. Solo no. 28, 55281 Indonesia",https://media-cdn.tripadvisor.com/media/photo-o/12/d9/ed/ec/room.jpg,-7.783.377,11.043.711,Platinum Adisucipto Hotel & Conference Center
"Klurak, Taman Martani, Kalasan, Sleman 55571 Indonesia",https://media-cdn.tripadvisor.com/media/photo-o/01/de/8b/00/caption.jpg,-7.748.786,11.048.782,Poeri Devata Resort Hotel
"Jl. Gandekan Lor no. 92, 55272 Indonesia",https://media-cdn.tripadvisor.com/media/photo-o/07/ab/c2/ae/pop-hotel-gandekan.jpg,-7.790.646,110.362.045,POP! Hotel Malioboro
"Jl. AM Sangaji, Kav. 16-18 Jetis, 55000 Indonesia",https://media-cdn.tripadvisor.com/media/photo-o/13/5e/2a/86/pop-hotel-sangaji-yogyakarta.jpg,-7.781.406,11.036.751,POP! Hotel Sangaji Yogyakarta
"Jl. Ipda Tut Harsono no 11 Muja Muju, Umbulharjo, 55165 Indonesia",https://media-cdn.tripadvisor.com/media/photo-o/0d/f9/aa/51/pop-hotel-timoho.jpg,-7.798.888,11.039.218,POP! Hotel Timoho
"Jl. Colombo No.7 Samirono, Caturtunggal, Depok 55281 Indonesia",https://media-cdn.tripadvisor.com/media/photo-o/1b/b2/20/e5/porta-by-the-ambarrukmo.jpg,-7.776.622,110.382.034,Porta by The Ambarrukmo
"Jln. Gandekan Lor 47, 55272 Indonesia",https://media-cdn.tripadvisor.com/media/photo-o/09/74/80/bb/prima-in-hotel-malioboro.jpg,-7.791.182,110.361.496,Prima In Hotel Malioboro
"Taman Siswa no. 91, 55151 Indonesia",https://media-cdn.tripadvisor.com/media/photo-o/11/58/f0/92/photo2jpg.jpg,-781.026,1.103.772,Prime Cailendra Hotel
"Complex Colombo, Jl. Affandi, Mrican, Caturtunggal, Depok 55281 Indonesia",https://media-cdn.tripadvisor.com/media/photo-o/19/49/62/7e/prime-plaza-hotel-jogjakarta.jpg,-7.776.829,11.038.932,Prime Plaza Hotel - Jogjakarta
"Jl. Dagen no. 46, 55271 Indonesia",https://media-cdn.tripadvisor.com/media/photo-o/03/73/a1/15/halaman-depan-penginapan.jpg,-779.365,11.036.337,Puntodewo Hotel
"Jl. Cendrawasih 36, 55281 Indonesia",https://media-cdn.tripadvisor.com/media/photo-o/05/8a/2c/aa/puri-artha-hotel.jpg,-777.992,11.039.104,Puri Artha Hotel
"Klampok Girijati Purwosari Gunungkidul, Parangtritis 55772 Indonesia",https://media-cdn.tripadvisor.com/media/photo-o/1d/33/69/15/majapahit-longue.jpg,-8.028.363,11.034.079,Queen Of The South Resort
"Tugu Gentong, Bangunjiwo, Kasihan, Yogyakarta, Bantul 55184 Indonesia",https://media-cdn.tripadvisor.com/media/photo-o/16/e3/de/4d/pool.jpg,-7.839.917,11.028.714,Rajaklana Resort Villa & Spa
"Jl. Lingkar Selatan No. 110, 52281 Indonesia",https://media-cdn.tripadvisor.com/media/photo-o/05/b7/64/75/the-table-with-the-lamp.jpg,-7.835.804,110.367.836,Ros-In Hotel
"Jl. Laksda Adisucipto No. 81, Depok 55281 Indonesia",https://media-cdn.tripadvisor.com/media/photo-o/12/f9/59/3a/kids-pool-overlooking.jpg,-7.782.404,11.040.281,Royal Ambarrukmo Yogyakarta
"Jl. Suryodiningratan No. 26, RW. 08 Suryodiningratan, Kec. Mantrijeron, Yogyakarta 55141 Indonesia",https://media-cdn.tripadvisor.com/media/photo-o/03/27/e9/35/hotel-brongto.jpg,-781.782,11.036.034,Royal Brongto Hotel
"Jl. Kemetiran Kidul no. 54, 55272 Indonesia",https://media-cdn.tripadvisor.com/media/photo-o/12/1c/69/7d/nice-rooms.jpg,-7.792.344,11.035.871,Royal Darmo Malioboro
"Jl. Pasar Kembang No. 29, Yogyakarta 55271 Indonesia",https://media-cdn.tripadvisor.com/media/photo-o/22/45/d1/a3/royal-malioboro-facade.jpg,-7.790.012,1.103.642,Royal Malioboro Yogyakarta by Aston
"Jl. Nila, Gamping 55291 Indonesia",https://media-cdn.tripadvisor.com/media/partner/bookingcom/photo-o/26/94/f8/94/caption.jpg,-7.742.455,11.034.803,RSA Medical Syariah RedPartner
"Jl. Palagan Tentara Pelajar Gang Padma 5, Ngaglik 55581 Indonesia",https://media-cdn.tripadvisor.com/media/photo-s/01/2f/19/31/swimming-pool.jpg,-7.741.051,11.036.897,Rumah Mertua Boutique Hotel & Garden Restaurant & Spa
"JL. Kranji 19B, Damai, Mudal, Ngaglik Indonesia",https://media-cdn.tripadvisor.com/media/photo-s/02/59/82/d1/rumah-palagan-yogyakarta.jpg,-7.732.744,11.038.338,Rumah Palagan Yogyakarta
"Jl. Surokarsan No. 5 Gunungketur, Pakualaman, Yogyakarta 55151 Indonesia",https://media-cdn.tripadvisor.com/media/photo-o/1b/4d/aa/bb/s5-guest-house.jpg,-78.043,11.037.624,S5 Guest House
"Jl. Babarsari 2 Sahid J-Walk, Adisucipto Airport, Sleman 55281 Indonesia",https://media-cdn.tripadvisor.com/media/photo-o/19/4f/81/ff/hotel-facade.jpg,-7.780.026,11.041.414,Sahid Raya Hotel & Convention Yogyakarta
"Jl. Gowongan Kidul no. 34 Mangkubumi, 55232 Indonesia",https://media-cdn.tripadvisor.com/media/photo-o/0b/9d/cf/f6/sakanti-malioboro-hotel.jpg,-7.787.444,11.036.573,Sakanti Malioboro Hotel
"Jl. Laksda Adisucipto Km 8, 55282 Indonesia",https://media-cdn.tripadvisor.com/media/photo-o/12/5b/af/06/rooftop-pool-relaxation.jpg,-7.783.713,1.104.221,Satoria Hotel Yogyakarta
"Jalan Laksda Adisucipto Km 8.7, Depok 55282 Indonesia",https://media-cdn.tripadvisor.com/media/photo-o/25/3b/e3/9d/taman-sari-water-castle.jpg,-7.779.258,110.428.604,Sheraton Mustika Yogyakarta Resort & Spa
"Lempuyangan Jln. Hayam Wuruk 51, 55212 Indonesia",https://media-cdn.tripadvisor.com/media/photo-o/08/a7/38/43/superior-room.jpg,-779.176,11.037.364,Sky Hotel Jogja
"Jl. Karya Utama, Ngaglik 55581 Indonesia",https://media-cdn.tripadvisor.com/media/photo-o/15/4a/ac/89/getlstd-property-photo.jpg,-7.741.354,11.037.059,Sofia Boutique Residence
"Jl. Laksda B Adi Sucipto Km. 6, Depok 55281 Indonesia",https://media-cdn.tripadvisor.com/media/photo-o/0e/69/92/a5/p-20170208-085937-largejpg.jpg,-7.783.345,11.043.364,Sriwedari Hotel
"Jl. Seturan Raya no. 1 Catur Tunggal, Depok 55281 Indonesia",https://media-cdn.tripadvisor.com/media/photo-o/22/19/c5/a3/rooftop-swimming-pool.jpg,-7.771.996,11.040.994,Student Park Hotel
"Sambirejo Dusun Sumberwatu, 55572 Indonesia",https://media-cdn.tripadvisor.com/media/photo-o/24/0f/c4/95/abhayagiri-sumberwatu.jpg,-776.834,11.049.695,Sumberwatu Heritage Resort
Jl. Sosrowijayan Gang Sosromenduran Malioboro Indonesia,https://media-cdn.tripadvisor.com/media/photo-o/13/f9/2f/cc/summer-quest.jpg,-7.791.899,110.364.555,Summer Quest
"Jl. Jenderal Sudirman no. 69, 55225 Indonesia",https://media-cdn.tripadvisor.com/media/photo-o/25/d5/17/17/swiss-belboutique-yogyakarta.jpg,-7.782.883,11.037.415,Swiss-Belboutique Yogyakarta
"Jl. Raya Magelang 129, 55242 Indonesia",https://media-cdn.tripadvisor.com/media/photo-o/0c/cc/bc/e8/swimming-pool.jpg,-7.771.648,11.036.114,Tara Hotel
"Jl. Margoutomo no. 103 (Mangkubumi), 55232 Indonesia",https://media-cdn.tripadvisor.com/media/photo-o/16/6c/c4/90/the-1o1-yogyakarta-tugu.jpg,-778.407,110.366.615,THE 1O1 Yogyakarta Tugu
"Jl. Majen Sutoyo no. 52, 55143 Indonesia",https://media-cdn.tripadvisor.com/media/photo-o/22/1e/37/9d/01-swimming-pool.jpg,-7.815.372,11.036.568,The Alana Hotel & Conference Center Malioboro Yogyakarta by ASTON
"Jl. Palagan Tentara Pelajar KM 7 Ngaglik, Ngaglik 55581 Indonesia",https://media-cdn.tripadvisor.com/media/photo-o/22/1b/a9/22/adult-pool.jpg,-7.739.619,11.037.704,The Alana Yogyakarta Hotel and Convention Center
"288, Ring Road Barat, Gamping 55292 Indonesia",https://media-cdn.tripadvisor.com/media/photo-o/15/29/cb/61/the-amartya-jogjakarta.jpg,-7.798.235,11.033.018,the Amartya Jogjakarta Hotel
"Jl. Kebon Agung no. 20, Sendangadi, Mlati, Sleman 55285 Indonesia",https://media-cdn.tripadvisor.com/media/photo-o/0a/7b/ec/69/suite-room.jpg,-7.747.619,11.036.051,The Atrium Hotel & Resort
"Jalan Kaliurang, Caturtunggal 55281 Indonesia",https://media-cdn.tripadvisor.com/media/partner/bookingcom/photo-o/26/8b/05/98/caption.jpg,-7.740.279,110.391.884,The Cabin Apartment Uttara
"Jl. Parangtritis no. 16, 55143 Indonesia",https://media-cdn.tripadvisor.com/media/photo-o/0d/47/ed/d7/the-cube-hotel.jpg,-7.815.827,11.036.829,The Cube Hotel
"Jl. Mangkuyudan no. 32, 55143 Indonesia",https://media-cdn.tripadvisor.com/media/photo-s/03/23/7a/1b/the-grand-palace-hotel.jpg,-782.178,11.036.433,The Grand Palace Hotel Yogyakarta
"Jl. Laksda Adisucipto Km. 8, 55282 Indonesia",https://media-cdn.tripadvisor.com/media/photo-o/12/b3/f6/a5/the-jayakarta-yogyakarta.jpg,-7.783.624,11.041.935,The Jayakarta Yogyakarta Hotel & Spa
"Jl. Padma, Palagan Panggung Sari, Sariharjo, Nggaglik. Sleman, 55581 Indonesia",https://media-cdn.tripadvisor.com/media/photo-o/16/03/4c/fa/overview-of-private-villa.jpg,-7.739.588,11.036.883,The Kharma Villas Yogyakarta
"Jl. Affandi No. 35, Gejayan, Depok 55281 Indonesia",https://media-cdn.tripadvisor.com/media/photo-o/1d/3c/df/8d/the-manohara-hotel-yogyakarta.jpg,-7.774.481,110.388.985,The Manohara Hotel Yogyakarta
"Jl. Magelang KM.6 No.18, Sleman 55284 Indonesia",https://media-cdn.tripadvisor.com/media/photo-o/0e/2b/20/73/deluxe-pool-terrace.jpg,-7.752.576,11.036.097,The Rich Jogja Hotel
"Jalan Laksda Adisutjipto Km. 5, Depok 55281 Indonesia",https://media-cdn.tripadvisor.com/media/photo-o/07/bd/2f/4e/hotel-victoria.jpg,-7.782.166,11.040.177,The Victoria Hotel Yogyakarta
"Jl. Ringroad Barat Bedog Trihanggo, Sleman 55291 Indonesia",https://media-cdn.tripadvisor.com/media/photo-o/0c/fb/49/e8/swimming-pool.jpg,-7.747.959,11.033.738,The Westlake Resort Yogyakarta
"Jln. Urip sumoharjo No. 64, 55221 Indonesia",https://media-cdn.tripadvisor.com/media/photo-o/05/73/70/d6/tickle-hotel.jpg,-7.783.053,11.038.528,Tickle Hotel
"Jl. Supeno Mentri no. 48, 55162 Indonesia",https://media-cdn.tripadvisor.com/media/photo-o/11/e2/a3/ca/tjokro-style-yogyakarta.jpg,-7.816.475,11.038.036,Tjokro Style Yogyakarta
"Jln. Tirtodipuran 42, 55143 Indonesia",https://media-cdn.tripadvisor.com/media/photo-o/0e/64/d3/05/photo0jpg.jpg,-7.818.936,11.036.603,Tulips Hotel & Restaurant
"Jl. Pancasila 2, 55281 Indonesia",https://media-cdn.tripadvisor.com/media/photo-o/0d/f5/27/3b/img20161224130524-largejpg.jpg,-7.772.797,11.037.756,University Club Hotel
"Jln. Ngadinegaran Mantrijeron, 55143 Indonesia",https://media-cdn.tripadvisor.com/media/photo-o/02/51/77/3d/villa-diamond-our-newest.jpg,-7.817,110.365.555,Villa Pondok Terra
"Jl. Dagen no. 8 Malioboro, 55271 Indonesia",https://media-cdn.tripadvisor.com/media/photo-o/1c/de/0e/7f/area-taman-lantai-1.jpg,-7.793.938,11.036.543,Whiz Hotel Malioboro
"Gg. Menur, Bantul 55712 Indonesia",https://media-cdn.tripadvisor.com/media/partner/bookingcom/photo-o/26/bd/3d/ef/caption.jpg,-7.894.825,11.032.266,Wisma Sanggrahan Syariah Yogyakarta RedPartner
"Jl. Patangpuluhan no. 23 Wirobrajan, 55251 Indonesia",https://media-cdn.tripadvisor.com/media/photo-o/0e/44/70/d6/yats-colony.jpg,-7.807.967,11.034.765,YATS Colony
"Jl. Laksda Adisucipto no. 23, 55221 Indonesia",https://media-cdn.tripadvisor.com/media/photo-o/0b/38/ef/2e/de-vitello-yellow-star.jpg,-7.783.408,11.039.769,Yellow Star Hotel Ambarrukmo
"Jl. Gejayan no. 27A, Depok 55281 Indonesia",https://media-cdn.tripadvisor.com/media/photo-o/0b/47/80/0b/room-yellow-star-gejayan.jpg,-7.771.337,11.038.988,Yellow Star Hotel Gejayan
"Jalan Ringroad Utara Condong Catur, Yogyakarta, Depok 55283 Indonesia",https://media-cdn.tripadvisor.com/media/photo-o/25/3e/fe/71/exterior.jpg,-77.616,11.039.828,Yogyakarta Marriott Hotel
"Jalan Gajah Mada No 28, Yogyakarta 55112 Indonesia",https://media-cdn.tripadvisor.com/media/photo-o/15/8e/bc/07/swimming-pool.jpg,-779.915,110.373.276,Zest Hotel Yogyakarta
"Jl. HOS. Cokroaminoto no. 145, 55244 Indonesia",https://media-cdn.tripadvisor.com/media/photo-o/05/61/49/27/zodiak-cokroaminoto-yogyakarta.jpg,-7.791.244,11.035.326,Zodiak @ Cokroaminoto Yogyakarta